VSP RF A1               
1 59135U 24043AP  26066.03073316  .00000577  00000+0  25199-4 0  9997
2 59135  97.5247 201.5379 0009431 234.6315 125.4042 15.26179596111403
STARLINK-32804          
1 62846U 25019T   26068.44852348  .00022901  00000+0  83861-3 0  9995
2 62846  43.0083  90.3825 0002822 284.4195  75.6344 15.27599780 62213
